ONEWEB-0706             
1 61611U 24188T   25266.80089341  .00000649  00000+0  18227-2 0  9992
2 61611  87.8741  89.3885 0002102 103.6289 256.5073 13.10374349 48495
ONEWEB-0707             
1 61612U 24188U   25267.26569311  .00000528  00000+0  14774-2 0  9993
2 61612  87.8746  89.2627 0002019 104.8834 255.2517 13.10372517 48494
ONEWEB-0708             
1 61613U 24188V   25266.97849821  .00000087  00000+0  21371-3 0  9990
2 61613  87.8753  89.3618 0002379  98.5156 261.6241 13.10369995 48434
